{
  "type": "FeatureCollection",
  "features": [
    {
      "type": "Feature",
      "properties": {
        "norad_id": 28054,
        "name": "DMSP 5D-3 F16 (USA 172)",
        "group": "weather",
        "lat": -34.072826140377806,
        "lon": -174.69697766069575,
        "alt_km": 849.8868586035796,
        "timestamp": "2025-12-19T22:41:52.021083+00:00",
        "meta_object_name": "DMSP 5D-3 F16 (USA 172)",
        "meta_object_id": "2003-048A",
        "meta_epoch": "2025-12-19T17:01:41.836800",
        "meta_mean_motion": 14.14426593,
        "meta_eccentricity": 0.0006309,
        "meta_inclination": 99.0039,
        "meta_ra_of_asc_node": 11.2212,
        "meta_arg_of_pericenter": 298.7253,
        "meta_mean_anomaly": 153.6082,
        "meta_ephemeris_type": 0,
        "meta_classification_type": "U",
        "meta_norad_cat_id": 28054,
        "meta_element_set_no": 999,
        "meta_rev_at_epoch": 14411,
        "meta_bstar": 6.8263e-05,
        "meta_mean_motion_dot": 8.5e-07,
        "meta_mean_motion_ddot": 0,
        "tle_line1": "1 28054U 03048A   25353.70951200  .00000085  00000+0  68263-4 0  9997",
        "tle_line2": "2 28054  99.0039  11.2212 0006309 298.7253 153.6082 14.14426593144119"
      },
      "geometry": {
        "type": "Point",
        "coordinates": [
          -174.69697766069575,
          -34.072826140377806
        ]
      }
    },
    {
      "type": "Feature",
      "properties": {
        "norad_id": 28912,
        "name": "METEOSAT-9 (MSG-2)",
        "group": "weather",
        "lat": 7.662946082612217,
        "lon": 114.35499596339848,
        "alt_km": 36036.00244072334,
        "timestamp": "2025-12-19T22:41:52.021132+00:00",
        "meta_object_name": "METEOSAT-9 (MSG-2)",
        "meta_object_id": "2005-049B",
        "meta_epoch": "2025-12-18T20:21:29.033280",
        "meta_mean_motion": 1.00264866,
        "meta_eccentricity": 0.0082047,
        "meta_inclination": 8.9417,
        "meta_ra_of_asc_node": 55.9014,
        "meta_arg_of_pericenter": 282.314,
        "meta_mean_anomaly": 99.6592,
        "meta_ephemeris_type": 0,
        "meta_classification_type": "U",
        "meta_norad_cat_id": 28912,
        "meta_element_set_no": 999,
        "meta_rev_at_epoch": 519,
        "meta_bstar": 0,
        "meta_mean_motion_dot": 1.45e-06,
        "meta_mean_motion_ddot": 0,
        "tle_line1": "1 28912U 05049B   25352.84825270  .00000145  00000+0  00000+0 0  9991",
        "tle_line2": "2 28912   8.9417  55.9014 0082047 282.3140  99.6592  1.00264866  5196"
      },
      "geometry": {
        "type": "Point",
        "coordinates": [
          114.35499596339848,
          7.662946082612217
        ]
      }
    },
    {
      "type": "Feature",
      "properties": {
        "norad_id": 29522,
        "name": "DMSP 5D-3 F17 (USA 191)",
        "group": "weather",
        "lat": 12.222407860660624,
        "lon": -178.9058114803615,
        "alt_km": 838.0659131150587,
        "timestamp": "2025-12-19T22:41:52.021149+00:00",
        "meta_object_name": "DMSP 5D-3 F17 (USA 191)",
        "meta_object_id": "2006-050A",
        "meta_epoch": "2025-12-19T18:30:49.564800",
        "meta_mean_motion": 14.1492252,
        "meta_eccentricity": 0.0009697,
        "meta_inclination": 98.739,
        "meta_ra_of_asc_node": 359.0141,
        "meta_arg_of_pericenter": 203.6273,
        "meta_mean_anomaly": 156.4456,
        "meta_ephemeris_type": 0,
        "meta_classification_type": "U",
        "meta_norad_cat_id": 29522,
        "meta_element_set_no": 999,
        "meta_rev_at_epoch": 98704,
        "meta_bstar": 8.7524e-05,
        "meta_mean_motion_dot": 1.26e-06,
        "meta_mean_motion_ddot": 0,
        "tle_line1": "1 29522U 06050A   25353.77140700  .00000126  00000+0  87524-4 0  9993",
        "tle_line2": "2 29522  98.7390 359.0141 0009697 203.6273 156.4456 14.14922520987044"
      },
      "geometry": {
        "type": "Point",
        "coordinates": [
          -178.9058114803615,
          12.222407860660624
        ]
      }
    },
    {
      "type": "Feature",
      "properties": {
        "norad_id": 32958,
        "name": "FENGYUN 3A",
        "group": "weather",
        "lat": 0.5531988285450307,
        "lon": -66.76352790032315,
        "alt_km": 828.2266335389486,
        "timestamp": "2025-12-19T22:41:52.021183+00:00",
        "meta_object_name": "FENGYUN 3A",
        "meta_object_id": "2008-026A",
        "meta_epoch": "2025-12-19T14:14:12.505056",
        "meta_mean_motion": 14.19516596,
        "meta_eccentricity": 0.0007684,
        "meta_inclination": 98.6705,
        "meta_ra_of_asc_node": 292.9758,
        "meta_arg_of_pericenter": 288.4847,
        "meta_mean_anomaly": 71.5494,
        "meta_ephemeris_type": 0,
        "meta_classification_type": "U",
        "meta_norad_cat_id": 32958,
        "meta_element_set_no": 999,
        "meta_rev_at_epoch": 90992,
        "meta_bstar": 5.2028e-05,
        "meta_mean_motion_dot": 6.6e-07,
        "meta_mean_motion_ddot": 0,
        "tle_line1": "1 32958U 08026A   25353.59320029  .00000066  00000+0  52028-4 0  9993",
        "tle_line2": "2 32958  98.6705 292.9758 0007684 288.4847  71.5494 14.19516596909928"
      },
      "geometry": {
        "type": "Point",
        "coordinates": [
          -66.76352790032315,
          0.5531988285450307
        ]
      }
    },
    {
      "type": "Feature",
      "properties": {
        "norad_id": 35491,
        "name": "GOES 14",
        "group": "weather",
        "lat": -0.9483867302896353,
        "lon": -45.058769865029035,
        "alt_km": 35833.916953861306,
        "timestamp": "2025-12-19T22:41:52.021199+00:00",
        "meta_object_name": "GOES 14",
        "meta_object_id": "2009-033A",
        "meta_epoch": "2025-12-19T11:12:46.867104",
        "meta_mean_motion": 1.00096833,
        "meta_eccentricity": 5.13e-05,
        "meta_inclination": 1.2203,
        "meta_ra_of_asc_node": 85.3391,
        "meta_arg_of_pericenter": 179.3818,
        "meta_mean_anomaly": 237.7883,
        "meta_ephemeris_type": 0,
        "meta_classification_type": "U",
        "meta_norad_cat_id": 35491,
        "meta_element_set_no": 999,
        "meta_rev_at_epoch": 479,
        "meta_bstar": 0,
        "meta_mean_motion_dot": 1.8e-07,
        "meta_mean_motion_ddot": 0,
        "tle_line1": "1 35491U 09033A   25353.46720911  .00000018  00000+0  00000+0 0  9992",
        "tle_line2": "2 35491   1.2203  85.3391 0000513 179.3818 237.7883  1.00096833  4795"
      },
      "geometry": {
        "type": "Point",
        "coordinates": [
          -45.058769865029035,
          -0.9483867302896353
        ]
      }
    },
    {
      "type": "Feature",
      "properties": {
        "norad_id": 35951,
        "name": "DMSP 5D-3 F18 (USA 210)",
        "group": "weather",
        "lat": 30.657410904077484,
        "lon": -35.00902059602988,
        "alt_km": 832.9872425690028,
        "timestamp": "2025-12-19T22:41:52.021212+00:00",
        "meta_object_name": "DMSP 5D-3 F18 (USA 210)",
        "meta_object_id": "2009-057A",
        "meta_epoch": "2025-12-19T17:27:34.946784",
        "meta_mean_motion": 14.14773589,
        "meta_eccentricity": 0.0011902,
        "meta_inclination": 98.8841,
        "meta_ra_of_asc_node": 330.0935,
        "meta_arg_of_pericenter": 44.365,
        "meta_mean_anomaly": 315.8474,
        "meta_ephemeris_type": 0,
        "meta_classification_type": "U",
        "meta_norad_cat_id": 35951,
        "meta_element_set_no": 999,
        "meta_rev_at_epoch": 83421,
        "meta_bstar": 0.00012902,
        "meta_mean_motion_dot": 2.04e-06,
        "meta_mean_motion_ddot": 0,
        "tle_line1": "1 35951U 09057A   25353.72748781  .00000204  00000+0  12902-3 0  9998",
        "tle_line2": "2 35951  98.8841 330.0935 0011902  44.3650 315.8474 14.14773589834210"
      },
      "geometry": {
        "type": "Point",
        "coordinates": [
          -35.00902059602988,
          30.657410904077484
        ]
      }
    },
    {
      "type": "Feature",
      "properties": {
        "norad_id": 36411,
        "name": "EWS-G2 (GOES 15)",
        "group": "weather",
        "lat": 0.6012019716385182,
        "lon": 130.562245690887,
        "alt_km": 35801.99876500876,
        "timestamp": "2025-12-19T22:41:52.021225+00:00",
        "meta_object_name": "EWS-G2 (GOES 15)",
        "meta_object_id": "2010-008A",
        "meta_epoch": "2025-12-19T16:33:11.351808",
        "meta_mean_motion": 1.00270885,
        "meta_eccentricity": 0.0005461,
        "meta_inclination": 0.83,
        "meta_ra_of_asc_node": 86.0824,
        "meta_arg_of_pericenter": 177.3617,
        "meta_mean_anomaly": 134.7553,
        "meta_ephemeris_type": 0,
        "meta_classification_type": "U",
        "meta_norad_cat_id": 36411,
        "meta_element_set_no": 999,
        "meta_rev_at_epoch": 5783,
        "meta_bstar": 0,
        "meta_mean_motion_dot": 6.2e-07,
        "meta_mean_motion_ddot": 0,
        "tle_line1": "1 36411U 10008A   25353.68971472  .00000062  00000+0  00000+0 0  9992",
        "tle_line2": "2 36411   0.8300  86.0824 0005461 177.3617 134.7553  1.00270885 57836"
      },
      "geometry": {
        "type": "Point",
        "coordinates": [
          130.562245690887,
          0.6012019716385182
        ]
      }
    }
  ]
}